CCSDS_OMM_VERS = 2.0
CREATION_DATE  = 
ORIGINATOR     = 

OBJECT_NAME    = STARLINK-35887
OBJECT_ID      = 2025-288A
CENTER_NAME    = EARTH
REF_FRAME      = TEME
TIME_SYSTEM    = UTC
MEAN_ELEMENT_THEORY = SGP/SGP4

EPOCH          = 2025-12-27T06:00:02.000160
MEAN_MOTION    = 15.56819913
ECCENTRICITY   = .00014495
INCLINATION    = 43.0001
RA_OF_ASC_NODE = 79.0057
ARG_OF_PERICENTER = 271.1004
MEAN_ANOMALY   = 113.2075

EPHEMERIS_TYPE = 0
CLASSIFICATION_TYPE = U
NORAD_CAT_ID   = 66959
ELEMENT_SET_NO = 999
REV_AT_EPOCH   = 416
BSTAR          = -.31108135E-1
MEAN_MOTION_DOT = -.2045746E-1
MEAN_MOTION_DDOT = 0

CCSDS_OMM_VERS = 2.0
CREATION_DATE  = 
ORIGINATOR     = 

OBJECT_NAME    = STARLINK-35879
OBJECT_ID      = 2025-288B
CENTER_NAME    = EARTH
REF_FRAME      = TEME
TIME_SYSTEM    = UTC
MEAN_ELEMENT_THEORY = SGP/SGP4

EPOCH          = 2025-12-27T06:00:02.000160
MEAN_MOTION    = 15.56808974
ECCENTRICITY   = .00012667
INCLINATION    = 43.0000
RA_OF_ASC_NODE = 79.0010
ARG_OF_PERICENTER = 267.9765
MEAN_ANOMALY   = 118.2509

EPHEMERIS_TYPE = 0
CLASSIFICATION_TYPE = U
NORAD_CAT_ID   = 66960
ELEMENT_SET_NO = 999
REV_AT_EPOCH   = 416
BSTAR          = -.30785295E-1
MEAN_MOTION_DOT = -.2025898E-1
MEAN_MOTION_DDOT = 0

CCSDS_OMM_VERS = 2.0
CREATION_DATE  = 
ORIGINATOR     = 

OBJECT_NAME    = STARLINK-35761
OBJECT_ID      = 2025-288C
CENTER_NAME    = EARTH
REF_FRAME      = TEME
TIME_SYSTEM    = UTC
MEAN_ELEMENT_THEORY = SGP/SGP4

EPOCH          = 2025-12-27T06:00:02.000160
MEAN_MOTION    = 15.56813010
ECCENTRICITY   = .00013233
INCLINATION    = 43.0000
RA_OF_ASC_NODE = 78.9963
ARG_OF_PERICENTER = 270.5942
MEAN_ANOMALY   = 117.5502

EPHEMERIS_TYPE = 0
CLASSIFICATION_TYPE = U
NORAD_CAT_ID   = 66961
ELEMENT_SET_NO = 999
REV_AT_EPOCH   = 416
BSTAR          = -.30940891E-1
MEAN_MOTION_DOT = -.2035363E-1
MEAN_MOTION_DDOT = 0

CCSDS_OMM_VERS = 2.0
CREATION_DATE  = 
ORIGINATOR     = 

OBJECT_NAME    = STARLINK-35874
OBJECT_ID      = 2025-288D
CENTER_NAME    = EARTH
REF_FRAME      = TEME
TIME_SYSTEM    = UTC
MEAN_ELEMENT_THEORY = SGP/SGP4

EPOCH          = 2025-12-27T06:00:02.000160
MEAN_MOTION    = 15.56816598
ECCENTRICITY   = .00014758
INCLINATION    = 42.9995
RA_OF_ASC_NODE = 78.9910
ARG_OF_PERICENTER = 272.5193
MEAN_ANOMALY   = 117.5380

EPHEMERIS_TYPE = 0
CLASSIFICATION_TYPE = U
NORAD_CAT_ID   = 66962
ELEMENT_SET_NO = 999
REV_AT_EPOCH   = 416
BSTAR          = -.30971089E-1
MEAN_MOTION_DOT = -.2037482E-1
MEAN_MOTION_DDOT = 0

CCSDS_OMM_VERS = 2.0
CREATION_DATE  = 
ORIGINATOR     = 

OBJECT_NAME    = STARLINK-36133
OBJECT_ID      = 2025-288E
CENTER_NAME    = EARTH
REF_FRAME      = TEME
TIME_SYSTEM    = UTC
MEAN_ELEMENT_THEORY = SGP/SGP4

EPOCH          = 2025-12-27T06:00:02.000160
MEAN_MOTION    = 15.56817374
ECCENTRICITY   = .00014171
INCLINATION    = 42.9997
RA_OF_ASC_NODE = 78.9863
ARG_OF_PERICENTER = 268.8700
MEAN_ANOMALY   = 123.1084

EPHEMERIS_TYPE = 0
CLASSIFICATION_TYPE = U
NORAD_CAT_ID   = 66963
ELEMENT_SET_NO = 999
REV_AT_EPOCH   = 416
BSTAR          = -.31054628E-1
MEAN_MOTION_DOT = -.2042408E-1
MEAN_MOTION_DDOT = 0

CCSDS_OMM_VERS = 2.0
CREATION_DATE  = 
ORIGINATOR     = 

OBJECT_NAME    = STARLINK-36104
OBJECT_ID      = 2025-288F
CENTER_NAME    = EARTH
REF_FRAME      = TEME
TIME_SYSTEM    = UTC
MEAN_ELEMENT_THEORY = SGP/SGP4

EPOCH          = 2025-12-27T06:00:02.000160
MEAN_MOTION    = 15.56817343
ECCENTRICITY   = .00014175
INCLINATION    = 42.9996
RA_OF_ASC_NODE = 78.9812
ARG_OF_PERICENTER = 270.8038
MEAN_ANOMALY   = 123.0902

EPHEMERIS_TYPE = 0
CLASSIFICATION_TYPE = U
NORAD_CAT_ID   = 66964
ELEMENT_SET_NO = 999
REV_AT_EPOCH   = 416
BSTAR          = -.31030112E-1
MEAN_MOTION_DOT = -.2040965E-1
MEAN_MOTION_DDOT = 0

CCSDS_OMM_VERS = 2.0
CREATION_DATE  = 
ORIGINATOR     = 

OBJECT_NAME    = STARLINK-36067
OBJECT_ID      = 2025-288G
CENTER_NAME    = EARTH
REF_FRAME      = TEME
TIME_SYSTEM    = UTC
MEAN_ELEMENT_THEORY = SGP/SGP4

EPOCH          = 2025-12-27T06:00:02.000160
MEAN_MOTION    = 15.56816180
ECCENTRICITY   = .00013041
INCLINATION    = 42.9994
RA_OF_ASC_NODE = 78.9768
ARG_OF_PERICENTER = 274.2636
MEAN_ANOMALY   = 121.5489

EPHEMERIS_TYPE = 0
CLASSIFICATION_TYPE = U
NORAD_CAT_ID   = 66965
ELEMENT_SET_NO = 999
REV_AT_EPOCH   = 416
BSTAR          = -.31058963E-1
MEAN_MOTION_DOT = -.2042509E-1
MEAN_MOTION_DDOT = 0

CCSDS_OMM_VERS = 2.0
CREATION_DATE  = 
ORIGINATOR     = 

OBJECT_NAME    = STARLINK-36139
OBJECT_ID      = 2025-288H
CENTER_NAME    = EARTH
REF_FRAME      = TEME
TIME_SYSTEM    = UTC
MEAN_ELEMENT_THEORY = SGP/SGP4

EPOCH          = 2025-12-27T06:00:02.000160
MEAN_MOTION    = 15.56816521
ECCENTRICITY   = .00015275
INCLINATION    = 42.9997
RA_OF_ASC_NODE = 78.9719
ARG_OF_PERICENTER = 274.2093
MEAN_ANOMALY   = 123.5197

EPHEMERIS_TYPE = 0
CLASSIFICATION_TYPE = U
NORAD_CAT_ID   = 66966
ELEMENT_SET_NO = 999
REV_AT_EPOCH   = 416
BSTAR          = -.31055234E-1
MEAN_MOTION_DOT = -.2042456E-1
MEAN_MOTION_DDOT = 0

CCSDS_OMM_VERS = 2.0
CREATION_DATE  = 
ORIGINATOR     = 

OBJECT_NAME    = STARLINK-36136
OBJECT_ID      = 2025-288J
CENTER_NAME    = EARTH
REF_FRAME      = TEME
TIME_SYSTEM    = UTC
MEAN_ELEMENT_THEORY = SGP/SGP4

EPOCH          = 2025-12-27T06:00:02.000160
MEAN_MOTION    = 15.56819172
ECCENTRICITY   = .00013723
INCLINATION    = 43.0001
RA_OF_ASC_NODE = 78.9669
ARG_OF_PERICENTER = 274.1913
MEAN_ANOMALY   = 125.4530

EPHEMERIS_TYPE = 0
CLASSIFICATION_TYPE = U
NORAD_CAT_ID   = 66967
ELEMENT_SET_NO = 999
REV_AT_EPOCH   = 416
BSTAR          = -.31100762E-1
MEAN_MOTION_DOT = -.2045213E-1
MEAN_MOTION_DDOT = 0

CCSDS_OMM_VERS = 2.0
CREATION_DATE  = 
ORIGINATOR     = 

OBJECT_NAME    = STARLINK-36152
OBJECT_ID      = 2025-288K
CENTER_NAME    = EARTH
REF_FRAME      = TEME
TIME_SYSTEM    = UTC
MEAN_ELEMENT_THEORY = SGP/SGP4

EPOCH          = 2025-12-27T06:00:02.000160
MEAN_MOTION    = 15.56813114
ECCENTRICITY   = .00014216
INCLINATION    = 43.0001
RA_OF_ASC_NODE = 78.9619
ARG_OF_PERICENTER = 275.0007
MEAN_ANOMALY   = 126.5623

EPHEMERIS_TYPE = 0
CLASSIFICATION_TYPE = U
NORAD_CAT_ID   = 66968
ELEMENT_SET_NO = 999
REV_AT_EPOCH   = 416
BSTAR          = -.30927002E-1
MEAN_MOTION_DOT = -.2034615E-1
MEAN_MOTION_DDOT = 0

CCSDS_OMM_VERS = 2.0
CREATION_DATE  = 
ORIGINATOR     = 

OBJECT_NAME    = STARLINK-36149
OBJECT_ID      = 2025-288L
CENTER_NAME    = EARTH
REF_FRAME      = TEME
TIME_SYSTEM    = UTC
MEAN_ELEMENT_THEORY = SGP/SGP4

EPOCH          = 2025-12-27T06:00:02.000160
MEAN_MOTION    = 15.56818630
ECCENTRICITY   = .00013883
INCLINATION    = 42.9998
RA_OF_ASC_NODE = 78.9379
ARG_OF_PERICENTER = 272.5279
MEAN_ANOMALY   = 138.6189

EPHEMERIS_TYPE = 0
CLASSIFICATION_TYPE = U
NORAD_CAT_ID   = 66969
ELEMENT_SET_NO = 999
REV_AT_EPOCH   = 416
BSTAR          = -.31055562E-1
MEAN_MOTION_DOT = -.204253E-1
MEAN_MOTION_DDOT = 0

CCSDS_OMM_VERS = 2.0
CREATION_DATE  = 
ORIGINATOR     = 

OBJECT_NAME    = STARLINK-35703
OBJECT_ID      = 2025-288M
CENTER_NAME    = EARTH
REF_FRAME      = TEME
TIME_SYSTEM    = UTC
MEAN_ELEMENT_THEORY = SGP/SGP4

EPOCH          = 2025-12-27T06:00:02.000160
MEAN_MOTION    = 15.56813987
ECCENTRICITY   = .00014185
INCLINATION    = 43.0002
RA_OF_ASC_NODE = 78.9184
ARG_OF_PERICENTER = 277.1660
MEAN_ANOMALY   = 141.6517

EPHEMERIS_TYPE = 0
CLASSIFICATION_TYPE = U
NORAD_CAT_ID   = 66970
ELEMENT_SET_NO = 999
REV_AT_EPOCH   = 416
BSTAR          = -.3099228E-1
MEAN_MOTION_DOT = -.2038511E-1
MEAN_MOTION_DDOT = 0

CCSDS_OMM_VERS = 2.0
CREATION_DATE  = 
ORIGINATOR     = 

OBJECT_NAME    = STARLINK-35678
OBJECT_ID      = 2025-288N
CENTER_NAME    = EARTH
REF_FRAME      = TEME
TIME_SYSTEM    = UTC
MEAN_ELEMENT_THEORY = SGP/SGP4

EPOCH          = 2025-12-27T06:00:02.000160
MEAN_MOTION    = 15.56813285
ECCENTRICITY   = .00014148
INCLINATION    = 43.0001
RA_OF_ASC_NODE = 78.9582
ARG_OF_PERICENTER = 275.6309
MEAN_ANOMALY   = 127.8500

EPHEMERIS_TYPE = 0
CLASSIFICATION_TYPE = U
NORAD_CAT_ID   = 66971
ELEMENT_SET_NO = 999
REV_AT_EPOCH   = 416
BSTAR          = -.30968387E-1
MEAN_MOTION_DOT = -.2037056E-1
MEAN_MOTION_DDOT = 0

CCSDS_OMM_VERS = 2.0
CREATION_DATE  = 
ORIGINATOR     = 

OBJECT_NAME    = STARLINK-34846
OBJECT_ID      = 2025-288P
CENTER_NAME    = EARTH
REF_FRAME      = TEME
TIME_SYSTEM    = UTC
MEAN_ELEMENT_THEORY = SGP/SGP4

EPOCH          = 2025-12-27T06:00:02.000160
MEAN_MOTION    = 15.56815839
ECCENTRICITY   = .00016114
INCLINATION    = 43.0002
RA_OF_ASC_NODE = 78.9533
ARG_OF_PERICENTER = 272.0657
MEAN_ANOMALY   = 133.3324

EPHEMERIS_TYPE = 0
CLASSIFICATION_TYPE = U
NORAD_CAT_ID   = 66972
ELEMENT_SET_NO = 999
REV_AT_EPOCH   = 416
BSTAR          = -.31043533E-1
MEAN_MOTION_DOT = -.2041775E-1
MEAN_MOTION_DDOT = 0

CCSDS_OMM_VERS = 2.0
CREATION_DATE  = 
ORIGINATOR     = 

OBJECT_NAME    = STARLINK-35778
OBJECT_ID      = 2025-288Q
CENTER_NAME    = EARTH
REF_FRAME      = TEME
TIME_SYSTEM    = UTC
MEAN_ELEMENT_THEORY = SGP/SGP4

EPOCH          = 2025-12-27T06:00:02.000160
MEAN_MOTION    = 15.56814474
ECCENTRICITY   = .00014565
INCLINATION    = 42.9999
RA_OF_ASC_NODE = 78.9485
ARG_OF_PERICENTER = 277.6000
MEAN_ANOMALY   = 129.7142

EPHEMERIS_TYPE = 0
CLASSIFICATION_TYPE = U
NORAD_CAT_ID   = 66973
ELEMENT_SET_NO = 999
REV_AT_EPOCH   = 416
BSTAR          = -.30998674E-1
MEAN_MOTION_DOT = -.2038945E-1
MEAN_MOTION_DDOT = 0

